[{"OBJECT_NAME":"STARLINK-34909","OBJECT_ID":"2025-191Y","EPOCH":"2026-03-09T15:21:20.513664","MEAN_MOTION":15.05650911,"ECCENTRICITY":0.0002553,"INCLINATION":97.6021,"RA_OF_ASC_NODE":301.5048,"ARG_OF_PERICENTER":79.2579,"MEAN_ANOMALY":280.8935,"EPHEMERIS_TYPE":0,"CLASSIFICATION_TYPE":"U","NORAD_CAT_ID":65401,"ELEMENT_SET_NO":999,"REV_AT_EPOCH":3027,"BSTAR":0.00036068,"MEAN_MOTION_DOT":5.148e-5,"MEAN_MOTION_DDOT":0},{"OBJECT_NAME":"KUIPER-00139","OBJECT_ID":"2025-217D","EPOCH":"2026-03-09T07:26:02.378400","MEAN_MOTION":15.01890214,"ECCENTRICITY":0.00071199,"INCLINATION":51.8865,"RA_OF_ASC_NODE":35.54,"ARG_OF_PERICENTER":318.901,"MEAN_ANOMALY":41.1425,"EPHEMERIS_TYPE":0,"CLASSIFICATION_TYPE":"U","NORAD_CAT_ID":65765,"ELEMENT_SET_NO":999,"REV_AT_EPOCH":2495,"BSTAR":0.00087196011,"MEAN_MOTION_DOT":0.00011274,"MEAN_MOTION_DDOT":0}]
